STARLINK-1113
1 24926C 20001N   21325.13142931 -.00016795  00000-0 -11505-2 0  3252
2 24926  52.9963 192.6486 0001757  75.9091 137.4923 15.05592215    13
